STARLINK-34277          
1 64156U 25112L   25347.14288664  .00010804  00000+0  75178-3 0  9996
2 64156  97.6055  36.1804 0001279  91.0473 269.0900 15.05654317 30287
STARLINK-34343          
1 64157U 25112M   25347.12627790  .00005989  00000+0  41872-3 0  9994
2 64157  97.6050  36.2041 0001051 118.7422 241.3911 15.05671352 30289
STARLINK-34166          
1 64158U 25112N   25347.09303541  .00007443  00000+0  51932-3 0  9991
2 64158  97.6062  36.0916 0001102  92.8056 267.3297 15.05661176 30271
STARLINK-34344          
1 64159U 25112P   25347.15121304  .00016666  00000+0  11562-2 0  9995
2 64159  97.6064  36.1685 0001274  86.3610 273.7763 15.05660774 30285
STARLINK-34339          
1 64160U 25112Q   25347.13457653  .00018731  00000+0  12979-2 0  9992
2 64160  97.6044  36.1916 0001827  87.3301 272.8135 15.05678039 30280
STARLINK-34341          
1 64161U 25112R   25347.11796991  .00008801  00000+0  61341-3 0  9997
2 64161  97.6050  36.2162 0001412  86.4172 273.7216 15.05647888 30286
STARLINK-34317          
1 64162U 25112S   25347.10135495  .00005769  00000+0  40371-3 0  9993
2 64162  97.6038  36.2355 0000942 105.6621 254.4710 15.05652664 30280
STARLINK-34340          
1 64163U 25112T   25347.27856926  .00007450  00000+0  51997-3 0  9996
2 64163  97.6061  36.3068 0000550 117.9885 242.1397 15.05652262 30304
STARLINK-34263          
1 64164U 25112U   25347.13734983  .00003830  00000+0  26954-3 0  9993
2 64164  97.6048  36.1881 0001369  96.6349 263.5033 15.05648502 30281
STARLINK-33793          
1 64165U 25112V   25347.12904430  .00006722  00000+0  46963-3 0  9994
2 64165  97.6049  36.1996 0001302  90.1835 269.9541 15.05649949 30286
STARLINK-34313          
1 64166U 25112W   25347.12073662  .00002386  00000+0  16953-3 0  9997
2 64166  97.6045  36.2126 0000814  94.8355 265.2965 15.05653245 30287
STARLINK-34309          
1 64167U 25112X   25347.11243149  .00008003  00000+0  55823-3 0  9997
2 64167  97.6044  36.2240 0001563 111.0866 249.0528 15.05649526 30287
STARLINK-34303          
1 64168U 25112Y   25347.10412248  .00007954  00000+0  55477-3 0  9994
2 64168  97.6042  36.2348 0000791  93.4406 266.6911 15.05657193 30280
STARLINK-34175          
1 64169U 25112Z   25347.15395924  .00007246  00000+0  50591-3 0  9997
2 64169  97.6060  36.1647 0000936 114.2211 245.9114 15.05650278 30281
STARLINK-34177          
1 64170U 25113A   25346.73579411  .00038018  00000+0  12899-2 0  9997
2 64170  53.1599 134.9207 0001083 100.6444 259.4678 15.30183122 31752
STARLINK-34228          
1 64171U 25113B   25347.10867783  .00030684  00000+0  10434-2 0  9996
2 64171  53.1562 132.9804 0001046 101.4844 258.6275 15.30214468 31815
