[{"OBJECT_NAME":"STARLINK-34277","OBJECT_ID":"2025-112L","EPOCH":"2025-12-13T03:25:45.405696","MEAN_MOTION":15.05654317,"ECCENTRICITY":0.0001279,"INCLINATION":97.6055,"RA_OF_ASC_NODE":36.1804,"ARG_OF_PERICENTER":91.0473,"MEAN_ANOMALY":269.09,"EPHEMERIS_TYPE":0,"CLASSIFICATION_TYPE":"U","NORAD_CAT_ID":64156,"ELEMENT_SET_NO":999,"REV_AT_EPOCH":3028,"BSTAR":0.00075178093,"MEAN_MOTION_DOT":0.00010804,"MEAN_MOTION_DDOT":0},{"OBJECT_NAME":"STARLINK-34343","OBJECT_ID":"2025-112M","EPOCH":"2025-12-13T03:01:50.410560","MEAN_MOTION":15.05671352,"ECCENTRICITY":0.00010513,"INCLINATION":97.605,"RA_OF_ASC_NODE":36.2041,"ARG_OF_PERICENTER":118.7422,"MEAN_ANOMALY":241.3911,"EPHEMERIS_TYPE":0,"CLASSIFICATION_TYPE":"U","NORAD_CAT_ID":64157,"ELEMENT_SET_NO":999,"REV_AT_EPOCH":3028,"BSTAR":0.00041871772,"MEAN_MOTION_DOT":5.989e-5,"MEAN_MOTION_DDOT":0},{"OBJECT_NAME":"STARLINK-34166","OBJECT_ID":"2025-112N","EPOCH":"2025-12-13T02:13:58.259424","MEAN_MOTION":15.05661176,"ECCENTRICITY":0.00011021,"INCLINATION":97.6062,"RA_OF_ASC_NODE":36.0916,"ARG_OF_PERICENTER":92.8056,"MEAN_ANOMALY":267.3297,"EPHEMERIS_TYPE":0,"CLASSIFICATION_TYPE":"U","NORAD_CAT_ID":64158,"ELEMENT_SET_NO":999,"REV_AT_EPOCH":3027,"BSTAR":0.00051931894,"MEAN_MOTION_DOT":7.443e-5,"MEAN_MOTION_DDOT":0},{"OBJECT_NAME":"STARLINK-34344","OBJECT_ID":"2025-112P","EPOCH":"2025-12-13T03:37:44.806656","MEAN_MOTION":15.05660774,"ECCENTRICITY":0.00012745,"INCLINATION":97.6064,"RA_OF_ASC_NODE":36.1685,"ARG_OF_PERICENTER":86.361,"MEAN_ANOMALY":273.7763,"EPHEMERIS_TYPE":0,"CLASSIFICATION_TYPE":"U","NORAD_CAT_ID":64159,"ELEMENT_SET_NO":999,"REV_AT_EPOCH":3028,"BSTAR":0.0011562096,"MEAN_MOTION_DOT":0.00016666,"MEAN_MOTION_DDOT":0},{"OBJECT_NAME":"STARLINK-34339","OBJECT_ID":"2025-112Q","EPOCH":"2025-12-13T03:13:47.412192","MEAN_MOTION":15.05678039,"ECCENTRICITY":0.00018277,"INCLINATION":97.6044,"RA_OF_ASC_NODE":36.1916,"ARG_OF_PERICENTER":87.3301,"MEAN_ANOMALY":272.8135,"EPHEMERIS_TYPE":0,"CLASSIFICATION_TYPE":"U","NORAD_CAT_ID":64160,"ELEMENT_SET_NO":999,"REV_AT_EPOCH":3028,"BSTAR":0.0012979274,"MEAN_MOTION_DOT":0.00018731,"MEAN_MOTION_DDOT":0},{"OBJECT_NAME":"STARLINK-34341","OBJECT_ID":"2025-112R","EPOCH":"2025-12-13T02:49:52.600224","MEAN_MOTION":15.05647888,"ECCENTRICITY":0.00014123,"INCLINATION":97.605,"RA_OF_ASC_NODE":36.2162,"ARG_OF_PERICENTER":86.4172,"MEAN_ANOMALY":273.7216,"EPHEMERIS_TYPE":0,"CLASSIFICATION_TYPE":"U","NORAD_CAT_ID":64161,"ELEMENT_SET_NO":999,"REV_AT_EPOCH":3028,"BSTAR":0.00061341229,"MEAN_MOTION_DOT":8.801e-5,"MEAN_MOTION_DDOT":0},{"OBJECT_NAME":"STARLINK-34317","OBJECT_ID":"2025-112S","EPOCH":"2025-12-13T02:25:57.067680","MEAN_MOTION":15.05652664,"ECCENTRICITY":9.42e-5,"INCLINATION":97.6038,"RA_OF_ASC_NODE":36.2355,"ARG_OF_PERICENTER":105.6621,"MEAN_ANOMALY":254.471,"EPHEMERIS_TYPE":0,"CLASSIFICATION_TYPE":"U","NORAD_CAT_ID":64162,"ELEMENT_SET_NO":999,"REV_AT_EPOCH":3028,"BSTAR":0.00040370985,"MEAN_MOTION_DOT":5.769e-5,"MEAN_MOTION_DDOT":0},{"OBJECT_NAME":"STARLINK-34340","OBJECT_ID":"2025-112T","EPOCH":"2025-12-13T06:41:08.384064","MEAN_MOTION":15.05652262,"ECCENTRICITY":5.506e-5,"INCLINATION":97.6061,"RA_OF_ASC_NODE":36.3068,"ARG_OF_PERICENTER":117.9885,"MEAN_ANOMALY":242.1397,"EPHEMERIS_TYPE":0,"CLASSIFICATION_TYPE":"U","NORAD_CAT_ID":64163,"ELEMENT_SET_NO":999,"REV_AT_EPOCH":3030,"BSTAR":0.00051997339,"MEAN_MOTION_DOT":7.45e-5,"MEAN_MOTION_DDOT":0},{"OBJECT_NAME":"STARLINK-34263","OBJECT_ID":"2025-112U","EPOCH":"2025-12-13T03:17:47.025312","MEAN_MOTION":15.05648502,"ECCENTRICITY":0.00013695,"INCLINATION":97.6048,"RA_OF_ASC_NODE":36.1881,"ARG_OF_PERICENTER":96.6349,"MEAN_ANOMALY":263.5033,"EPHEMERIS_TYPE":0,"CLASSIFICATION_TYPE":"U","NORAD_CAT_ID":64164,"ELEMENT_SET_NO":999,"REV_AT_EPOCH":3028,"BSTAR":0.00026954139,"MEAN_MOTION_DOT":3.83e-5,"MEAN_MOTION_DDOT":0},{"OBJECT_NAME":"STARLINK-33793","OBJECT_ID":"2025-112V","EPOCH":"2025-12-13T03:05:49.427520","MEAN_MOTION":15.05649949,"ECCENTRICITY":0.00013029,"INCLINATION":97.6049,"RA_OF_ASC_NODE":36.1996,"ARG_OF_PERICENTER":90.1835,"MEAN_ANOMALY":269.9541,"EPHEMERIS_TYPE":0,"CLASSIFICATION_TYPE":"U","NORAD_CAT_ID":64165,"ELEMENT_SET_NO":999,"REV_AT_EPOCH":3028,"BSTAR":0.00046963494,"MEAN_MOTION_DOT":6.722e-5,"MEAN_MOTION_DDOT":0},{"OBJECT_NAME":"STARLINK-34313","OBJECT_ID":"2025-112W","EPOCH":"2025-12-13T02:53:51.643968","MEAN_MOTION":15.05653245,"ECCENTRICITY":8.145e-5,"INCLINATION":97.6045,"RA_OF_ASC_NODE":36.2126,"ARG_OF_PERICENTER":94.8355,"MEAN_ANOMALY":265.2965,"EPHEMERIS_TYPE":0,"CLASSIFICATION_TYPE":"U","NORAD_CAT_ID":64166,"ELEMENT_SET_NO":999,"REV_AT_EPOCH":3028,"BSTAR":0.00016952557,"MEAN_MOTION_DOT":2.386e-5,"MEAN_MOTION_DDOT":0},{"OBJECT_NAME":"STARLINK-34309","OBJECT_ID":"2025-112X","EPOCH":"2025-12-13T02:41:54.080736","MEAN_MOTION":15.05649526,"ECCENTRICITY":0.00015634,"INCLINATION":97.6044,"RA_OF_ASC_NODE":36.224,"ARG_OF_PERICENTER":111.0866,"MEAN_ANOMALY":249.0528,"EPHEMERIS_TYPE":0,"CLASSIFICATION_TYPE":"U","NORAD_CAT_ID":64167,"ELEMENT_SET_NO":999,"REV_AT_EPOCH":3028,"BSTAR":0.00055823137,"MEAN_MOTION_DOT":8.003e-5,"MEAN_MOTION_DDOT":0},{"OBJECT_NAME":"STARLINK-34303","OBJECT_ID":"2025-112Y","EPOCH":"2025-12-13T02:29:56.182272","MEAN_MOTION":15.05657193,"ECCENTRICITY":7.91e-5,"INCLINATION":97.6042,"RA_OF_ASC_NODE":36.2348,"ARG_OF_PERICENTER":93.4406,"MEAN_ANOMALY":266.6911,"EPHEMERIS_TYPE":0,"CLASSIFICATION_TYPE":"U","NORAD_CAT_ID":64168,"ELEMENT_SET_NO":999,"REV_AT_EPOCH":3028,"BSTAR":0.00055476866,"MEAN_MOTION_DOT":7.954e-5,"MEAN_MOTION_DDOT":0},{"OBJECT_NAME":"STARLINK-34175","OBJECT_ID":"2025-112Z","EPOCH":"2025-12-13T03:41:42.078336","MEAN_MOTION":15.05650278,"ECCENTRICITY":9.363e-5,"INCLINATION":97.606,"RA_OF_ASC_NODE":36.1647,"ARG_OF_PERICENTER":114.2211,"MEAN_ANOMALY":245.9114,"EPHEMERIS_TYPE":0,"CLASSIFICATION_TYPE":"U","NORAD_CAT_ID":64169,"ELEMENT_SET_NO":999,"REV_AT_EPOCH":3028,"BSTAR":0.00050590903,"MEAN_MOTION_DOT":7.246e-5,"MEAN_MOTION_DDOT":0},{"OBJECT_NAME":"STARLINK-34177","OBJECT_ID":"2025-113A","EPOCH":"2025-12-12T17:39:32.611104","MEAN_MOTION":15.30183122,"ECCENTRICITY":0.00010835,"INCLINATION":53.1599,"RA_OF_ASC_NODE":134.9207,"ARG_OF_PERICENTER":100.6444,"MEAN_ANOMALY":259.4678,"EPHEMERIS_TYPE":0,"CLASSIFICATION_TYPE":"U","NORAD_CAT_ID":64170,"ELEMENT_SET_NO":999,"REV_AT_EPOCH":3175,"BSTAR":0.0012898659,"MEAN_MOTION_DOT":0.00038018,"MEAN_MOTION_DDOT":0},{"OBJECT_NAME":"STARLINK-34228","OBJECT_ID":"2025-113B","EPOCH":"2025-12-13T02:36:29.764512","MEAN_MOTION":15.30214468,"ECCENTRICITY":0.00010462,"INCLINATION":53.1562,"RA_OF_ASC_NODE":132.9804,"ARG_OF_PERICENTER":101.4844,"MEAN_ANOMALY":258.6275,"EPHEMERIS_TYPE":0,"CLASSIFICATION_TYPE":"U","NORAD_CAT_ID":64171,"ELEMENT_SET_NO":999,"REV_AT_EPOCH":3181,"BSTAR":0.0010433665,"MEAN_MOTION_DOT":0.00030684,"MEAN_MOTION_DDOT":0}]
